CALSPHERE 1             
1 00900U 64063C   20129.24281897  .00000233  00000-0  24054-3 0  9999
2 00900  90.1572  27.7438 0026526 172.4140 306.3739 13.73367337764939
CALSPHERE 2             
1 00902U 64063E   20129.21027426  .00000021  00000-0  18307-4 0  9994
2 00902  90.1685  30.3675 0016896 218.9619 259.4307 13.52682669554644
LCS 1                   
1 01361U 65034C   20129.15323132 -.00000002  00000-0 -13698-2 0  9996
2 01361  32.1424  74.2209 0004808 334.9713  25.0551  9.89297081988931
TEMPSAT 1               
1 01512U 65065E   20129.34978733  .00000006  00000-0 -69233-5 0  9994
2 01512  89.8771 226.5929 0070690  34.3304  36.3671 13.33427060662745
CALSPHERE 4(A)          
1 01520U 65065H   20129.21316072  .00000046  00000-0  72703-4 0  9999
2 01520  90.0313 128.9914 0067970 275.7425 214.6766 13.35812192664824
OPS 5712 (P/L 160)      
1 02826U 67053A   20129.24388968  .00000436  00000-0  13079-3 0  9997
2 02826  69.9274 293.0613 0005864 338.5661  21.5226 14.49058196741115
OPS 5712 (P/L 153)      
1 02874U 67053H   20128.94420260 -.00000001  00000-0  37775-4 0  9997
2 02874  69.9743 215.4206 0009221 226.0525 133.9821 13.96347648695308
SURCAL 150B             
1 02909U 67053J   20129.24853487  .00000662  00000-0  14619-3 0  9994
2 02909  69.9475 318.3773 0002712  36.8226 323.3099 14.61718433751003
RIGIDSPHERE 2 (LCS 4)   
1 05398U 71067E   20129.25954563  .00000123  00000-0  36799-4 0  9993
2 05398  87.6274 235.2420 0064841  47.1370 313.5248 14.33880378553884
